#aV2006  7 25  0  0   .00000000      96 DD+AD WGS84 FIT  NGA
## 1385 172800.00000000   900.00000000 53941  .0000000000000
+   29     1  2  3  4  5  6  7  8  9 10 11 13 14 15 16 17 18
+         19 20 21 22 23 24 25 26 27 28 29 30  0  0  0  0  0
+          0  0  0  0  0  0  0  0  0  0  0  0  0  0  0  0  0
+          0  0  0  0  0  0  0  0  0  0  0  0  0  0  0  0  0
+          0  0  0  0  0  0  0  0  0  0  0  0  0  0  0  0  0
++         0  0  0  0  0  0  0  0  0  0  0  0  0  0  0  0  0
++         0  0  0  0  0  0  0  0  0  0  0  0  0  0  0  0  0
++         0  0  0  0  0  0  0  0  0  0  0  0  0  0  0  0  0
++         0  0  0  0  0  0  0  0  0  0  0  0  0  0  0  0  0
++         0  0  0  0  0  0  0  0  0  0  0  0  0  0  0  0  0
%c cc cc ccc ccc cccc cccc cccc cccc ccccc ccccc ccccc ccccc
%c cc cc ccc ccc cccc cccc cccc cccc ccccc ccccc ccccc ccccc
%f  0.0000000  0.000000000  0.00000000000  0.000000000000000
%f  0.0000000  0.000000000  0.00000000000  0.000000000000000
%i    0    0    0    0      0      0      0      0         0
%i    0    0    0    0      0      0      0      0         0
/*      NGA, ST. LOUIS,MO.                                  
/*   EPHEMERIS COMPUTED FROM  3 DAYS OF DATA                
/* CCCCCCCCCCCCCCCCCCCCCCCCCCCCCCCCCCCCCCCCCCCCCCCCCCCCCCCCC
/* CCCCCCCCCCCCCCCCCCCCCCCCCCCCCCCCCCCCCCCCCCCCCCCCCCCCCCCCC
*  2006  7 25 22  0   .00000000                                                 
P  1  14869.753943 -18297.604411 -11979.228890     67.368973                    
V  1  -3546.079815  15184.009810 -27208.744577       .020732                    
P  2 -20643.570098  12511.921959  10575.436412     17.371752                    
V  2 -14212.421929    185.528675 -27543.442262       .038428                    
P  3  11413.251046 -22054.367112   8804.372255    204.272198                    
V  3   1389.484556  12114.865220  28322.039981      -.187604                    
P  4 -26215.994916   5329.003677   -213.144344    281.567232                    
V  4   -373.630649  -2877.267693 -31261.829154       .071867                    
P  5   8859.449677  21384.865548 -13377.856839    252.525597                    
V  5 -14021.007117  -9327.029516 -24408.983720       .291220                    
P  6   9929.432905  16230.301335  18703.261251    593.362633                    
V  6  -7910.210833  22161.801923 -15259.765463       .047850                    
P  7  16737.690980  -7418.554751  19622.986846    539.553766                    
V  7  -4434.815379  23874.194338  12925.782316      -.016251                    
P  8 -25495.685242   -841.313225   7979.294766    -73.655823                    
V  8   9686.659221  -3745.138502  29612.040465      -.011043                    
P  9  -1274.590478  16003.047147 -21684.661808     29.382126                    
V  9 -25532.328706   6188.143109   6499.473594       .015382                    
P 10  -7961.813374  13114.410529  21547.328431     87.145266                    
V 10 -18723.733815 -20278.565738   5697.098057       .005264                    
P 11  -2263.127354 -16742.530484 -20535.330600    341.338052                    
V 11  24750.327205  -8787.383726   4709.247341       .021473                    
P 13  -8286.598266 -15661.838744  19709.193038     80.174833                    
V 13   8854.790959 -23540.397061 -14864.338315       .030906                    
P 14  15719.106802  -3270.143805 -21079.314594     -9.073918                    
V 14  -7665.044176  25753.073198  -9740.181281       .008368                    
P 15  25751.005603   1219.376595   7104.598184    651.240388                    
V 15  -8645.672614   3812.307199  29653.205577       .068216                    
P 16  11987.391788  -9408.895920  21841.652340     59.446496                    
V 16  18457.624606  20413.804666  -1226.866401       .029397                    
P 17 -16082.486988   2124.335042 -21016.091300     99.960938                    
V 17   7187.217942 -25728.563970  -8200.000115      -.005443                    
P 18  19410.587665  17739.597776  -4703.822358   -244.276574                    
V 18   1938.475060   6301.628873  30729.204100      -.012085                    
P 19   7632.586178 -25267.538442  -2532.757340      3.038360                    
V 19   3960.427723  -2093.128009  31505.452136       .025773                    
P 20 -11579.441045 -21992.718061  -9493.326538    -23.845448                    
V 20  10080.159494   6877.179449 -28479.254428       .003686                    
P 21  21425.946606   6781.874394  14641.274808     43.756930                    
V 21 -17587.538373   5463.560393  22782.393387       .021725                    
P 22  20160.967457   6689.651746 -15803.158607    119.673691                    
V 22  11456.450385  16955.479305  21561.659118       .033556                    
P 23  -1090.535983 -23701.047375  11660.603148    138.090044                    
V 23   6644.559257 -13656.031538 -27082.981623      -.002500                    
P 24 -25522.184479   -951.697501  -7563.552927     23.452583                    
V 24   9271.171203  -4162.339096 -29571.091236       .029468                    
P 25  23485.781220 -11592.732963   5245.216701    213.844012                    
V 25   6691.096265    704.187611 -30603.570192       .739444                    
P 26  -7845.154971  25033.365681   -945.718080   -192.480610                    
V 26  -2469.010177    -69.599568  32760.083884      -.134258                    
P 27 -19932.663599  -6625.292731  17048.335485     59.713232                    
V 27  19154.412645  -7112.715007  20052.992405       .017431                    
P 28 -20988.965510 -10264.499612 -12658.080651     22.344915                    
V 28  -9327.946322 -13673.011220  25616.286669      -.007374                    
P 29  -9683.419957  24356.716891   3402.520605    631.182589                    
V 29   -921.258170  -4516.369388  32132.083113       .020324                    
P 30  17886.692877  19675.545245  -1659.157099      4.779475                    
V 30  -3505.900158   1001.677136 -31234.922600       .011538                    
EOF
